O3B MPOWER F1           
1 54755U 22174A   24123.24967306 -.00000016  00000+0  00000+0 0  9997
2 54755   0.0649   1.7974 0006738  44.4686 103.1139  5.00114575 26544
